OBJECT_NAME,OBJECT_ID,EPOCH,MEAN_MOTION,ECCENTRICITY,INCLINATION,RA_OF_ASC_NODE,ARG_OF_PERICENTER,MEAN_ANOMALY,EPHEMERIS_TYPE,CLASSIFICATION_TYPE,NORAD_CAT_ID,ELEMENT_SET_NO,REV_AT_EPOCH,BSTAR,MEAN_MOTION_DOT,MEAN_MOTION_DDOT
SAUDISAT 1C (SO-50),2002-058C,2026-07-23T02:18:05.857632,14.83110516,.00742855,64.5523,17.8775,255.8289,103.4556,0,U,27607,999,26978,.12088401E-3,.878E-5,0
SAUDISAT 2,2004-025F,2026-07-23T05:28:21.716832,14.56701476,.0024593,98.5526,205.1444,183.1701,176.9344,0,U,28371,999,17099,.58424E-4,.212E-5,0
SAUDISAT 3,2007-012B,2026-07-23T20:14:50.584992,14.71444117,.0015943,98.1471,155.2723,109.2109,251.0824,0,U,31118,999,3313,.48513E-4,.25E-5,0
PISAT,2016-059B,2026-07-23T10:46:24.060576,14.69041077,.0030579,97.8196,203.3469,89.7127,270.7583,0,U,41784,999,52506,.15817E-3,.887E-5,0
FLYING LAPTOP,2017-042G,2026-07-23T20:16:01.960032,15.01353709,.0019102,97.4848,359.0085,5.0388,355.1025,0,U,42831,999,49195,.20927E-3,.2648E-4,0
SALSAT,2020-068K,2026-07-23T10:36:40.859712,15.30258663,.0010091,97.8868,209.7289,164.5021,195.6529,0,U,46495,999,32090,.25456E-3,.7378E-4,0
